[{"OBJECT_NAME":"STARLINK-32393","OBJECT_ID":"2024-202T","EPOCH":"2026-03-09T11:20:01.706208","MEAN_MOTION":15.27579329,"ECCENTRICITY":0.00017329,"INCLINATION":43.0016,"RA_OF_ASC_NODE":239.2823,"ARG_OF_PERICENTER":279.9745,"MEAN_ANOMALY":80.0911,"EPHEMERIS_TYPE":0,"CLASSIFICATION_TYPE":"U","NORAD_CAT_ID":61862,"ELEMENT_SET_NO":999,"REV_AT_EPOCH":7530,"BSTAR":2.1413949e-5,"MEAN_MOTION_DOT":3.27e-6,"MEAN_MOTION_DDOT":0},{"OBJECT_NAME":"BANDWAGON-2 OBJECT D","OBJECT_ID":"2024-247D","EPOCH":"2026-03-09T12:32:33.670752","MEAN_MOTION":15.29076102,"ECCENTRICITY":0.00034883,"INCLINATION":44.9954,"RA_OF_ASC_NODE":115.671,"ARG_OF_PERICENTER":351.1453,"MEAN_ANOMALY":8.9368,"EPHEMERIS_TYPE":0,"CLASSIFICATION_TYPE":"U","NORAD_CAT_ID":62380,"ELEMENT_SET_NO":999,"REV_AT_EPOCH":6773,"BSTAR":0.00040119131,"MEAN_MOTION_DOT":0.00011259,"MEAN_MOTION_DDOT":0}]
